{
  "type": "FeatureCollection",
  "features": [
    {
      "type": "Feature",
      "properties": {
        "norad_id": 54741,
        "name": "GALAXY 35 (G-35)",
        "group": "intelsat",
        "lat": 0.005474590862603022,
        "lon": -138.42594365637564,
        "alt_km": 35780.51721596137,
        "timestamp": "2025-12-23T14:49:08.998185+00:00",
        "meta_object_name": "GALAXY 35 (G-35)",
        "meta_object_id": "2022-170A",
        "meta_epoch": "2025-12-23T04:13:27.577632",
        "meta_mean_motion": 1.00271562,
        "meta_eccentricity": 0.00022113,
        "meta_inclination": 0.0227,
        "meta_ra_of_asc_node": 87.6624,
        "meta_arg_of_pericenter": 186.8343,
        "meta_mean_anomaly": 147.7469,
        "meta_ephemeris_type": 0,
        "meta_classification_type": "U",
        "meta_norad_cat_id": 54741,
        "meta_element_set_no": 999,
        "meta_rev_at_epoch": 1112,
        "meta_bstar": 0,
        "meta_mean_motion_dot": -1.41e-06,
        "meta_mean_motion_ddot": 0,
        "tle_line1": "1 54741U 22170A   25357.17601363 -.00000141  00000+0  00000+0 0  9997",
        "tle_line2": "2 54741   0.0227  87.6624 0002211 186.8343 147.7469  1.00271562 11123"
      },
      "geometry": {
        "type": "Point",
        "coordinates": [
          -138.42594365637564,
          0.005474590862603022
        ]
      }
    },
    {
      "type": "Feature",
      "properties": {
        "norad_id": 54742,
        "name": "GALAXY 36 (G-36)",
        "group": "intelsat",
        "lat": -0.0016743252114757802,
        "lon": -134.32130815214597,
        "alt_km": 35787.32552222066,
        "timestamp": "2025-12-23T14:49:08.998198+00:00",
        "meta_object_name": "GALAXY 36 (G-36)",
        "meta_object_id": "2022-170B",
        "meta_epoch": "2025-12-23T06:09:11.626848",
        "meta_mean_motion": 1.00270403,
        "meta_eccentricity": 4.607e-05,
        "meta_inclination": 0.0188,
        "meta_ra_of_asc_node": 66.7013,
        "meta_arg_of_pericenter": 274.6982,
        "meta_mean_anomaly": 113.9474,
        "meta_ephemeris_type": 0,
        "meta_classification_type": "U",
        "meta_norad_cat_id": 54742,
        "meta_element_set_no": 999,
        "meta_rev_at_epoch": 1101,
        "meta_bstar": 0,
        "meta_mean_motion_dot": -1.64e-06,
        "meta_mean_motion_ddot": 0,
        "tle_line1": "1 54742U 22170B   25357.25638457 -.00000164  00000+0  00000+0 0  9996",
        "tle_line2": "2 54742   0.0188  66.7013 0000460 274.6982 113.9474  1.00270403 11011"
      },
      "geometry": {
        "type": "Point",
        "coordinates": [
          -134.32130815214597,
          -0.0016743252114757802
        ]
      }
    },
    {
      "type": "Feature",
      "properties": {
        "norad_id": 57493,
        "name": "GALAXY 37 (G-37)",
        "group": "intelsat",
        "lat": -0.003751081257472978,
        "lon": -172.3463701305737,
        "alt_km": 35785.939013261974,
        "timestamp": "2025-12-23T14:49:08.998210+00:00",
        "meta_object_name": "GALAXY 37 (G-37)",
        "meta_object_id": "2023-112A",
        "meta_epoch": "2025-12-23T06:44:10.007232",
        "meta_mean_motion": 1.00271431,
        "meta_eccentricity": 0.00019943,
        "meta_inclination": 0.0166,
        "meta_ra_of_asc_node": 358.1611,
        "meta_arg_of_pericenter": 278.0212,
        "meta_mean_anomaly": 149.9236,
        "meta_ephemeris_type": 0,
        "meta_classification_type": "U",
        "meta_norad_cat_id": 57493,
        "meta_element_set_no": 999,
        "meta_rev_at_epoch": 877,
        "meta_bstar": 0,
        "meta_mean_motion_dot": 6.9e-07,
        "meta_mean_motion_ddot": 0,
        "tle_line1": "1 57493U 23112A   25357.28067138  .00000069  00000+0  00000+0 0  9997",
        "tle_line2": "2 57493   0.0166 358.1611 0001994 278.0212 149.9236  1.00271431  8778"
      },
      "geometry": {
        "type": "Point",
        "coordinates": [
          -172.3463701305737,
          -0.003751081257472978
        ]
      }
    }
  ]
}